[
    {
        "Altitude(m)": 607895.8455088886,
        "Argument of Periapsis(deg)": 0.0,
        "Eccentricity": 0.0,
        "Inclination(deg)": 60.0,
        "Latitude(deg)": 40.99841577023979,
        "Longitude(deg)": 145.0887178382655,
        "Mean Anomaly(deg)": 130.9091,
        "RAAN(deg)": 95.0,
        "Satellite Name": "Test1 426",
        "Satellite Number": 426,
        "Semi-Major Axis(m)": 6980739.136638005,
        "Time(s)": 0
    },
    {
        "Altitude(m)": 607795.1580150201,
        "Argument of Periapsis(deg)": 0.00010418945913296404,
        "Eccentricity": 0.0,
        "Inclination(deg)": 60.0,
        "Latitude(deg)": 40.53073930820396,
        "Longitude(deg)": 145.58531104839935,
        "Mean Anomaly(deg)": 131.5292061454618,
        "RAAN(deg)": 94.99957995086027,
        "Satellite Name": "Test1 426",
        "Satellite Number": 426,
        "Semi-Major Axis(m)": 6980739.136638005,
        "Time(s)": 10
    },
    {
        "Altitude(m)": 607694.6460666239,
        "Argument of Periapsis(deg)": 0.0002083789182659281,
        "Eccentricity": 0.0,
        "Inclination(deg)": 60.0,
        "Latitude(deg)": 40.060552900461644,
        "Longitude(deg)": 146.07446336836577,
        "Mean Anomaly(deg)": 132.14931229092366,
        "RAAN(deg)": 94.99915990172052,
        "Satellite Name": "Test1 426",
        "Satellite Number": 426,
        "Semi-Major Axis(m)": 6980739.136638005,
        "Time(s)": 20
    },
    {
        "Altitude(m)": 607594.373362564,
        "Argument of Periapsis(deg)": 0.00031256837739889213,
        "Eccentricity": 0.0,
        "Inclination(deg)": 60.0,
        "Latitude(deg)": 39.587930120761,
        "Longitude(deg)": 146.5563604051492,
        "Mean Anomaly(deg)": 132.7694184363855,
        "RAAN(deg)": 94.99873985258078,
        "Satellite Name": "Test1 426",
        "Satellite Number": 426,
        "Semi-Major Axis(m)": 6980739.136638005,
        "Time(s)": 30
    },
    {
        "Altitude(m)": 607494.4037020545,
        "Argument of Periapsis(deg)": 0.0004167578365318562,
        "Eccentricity": 0.0,
        "Inclination(deg)": 60.0,
        "Latitude(deg)": 39.11294230267962,
        "Longitude(deg)": 147.03118472575596,
        "Mean Anomaly(deg)": 133.38952458184733,
        "RAAN(deg)": 94.99831980344103,
        "Satellite Name": "Test1 426",
        "Satellite Number": 426,
        "Semi-Major Axis(m)": 6980739.136638005,
        "Time(s)": 40
    },
    {
        "Altitude(m)": 607394.8009527709,
        "Argument of Periapsis(deg)": 0.0005209472956648203,
        "Eccentricity": 0.0,
        "Inclination(deg)": 60.0,
        "Latitude(deg)": 38.63565861298696,
        "Longitude(deg)": 147.49911483676917,
        "Mean Anomaly(deg)": 134.00963072730917,
        "RAAN(deg)": 94.99789975430129,
        "Satellite Name": "Test1 426",
        "Satellite Number": 426,
        "Semi-Major Axis(m)": 6980739.136638005,
        "Time(s)": 50
    },
    {
        "Altitude(m)": 607295.6290188456,
        "Argument of Periapsis(deg)": 0.0006251367547977843,
        "Eccentricity": 0.0,
        "Inclination(deg)": 60.0,
        "Latitude(deg)": 38.15614612346515,
        "Longitude(deg)": 147.96032568759583,
        "Mean Anomaly(deg)": 134.62973687277096,
        "RAAN(deg)": 94.99747970516155,
        "Satellite Name": "Test1 426",
        "Satellite Number": 426,
        "Semi-Major Axis(m)": 6980739.136638005,
        "Time(s)": 60
    },
    {
        "Altitude(m)": 607196.9518088041,
        "Argument of Periapsis(deg)": 0.0007293262139307483,
        "Eccentricity": 0.0,
        "Inclination(deg)": 60.0,
        "Latitude(deg)": 37.67446988112154,
        "Longitude(deg)": 148.414989183399,
        "Mean Anomaly(deg)": 135.2498430182328,
        "RAAN(deg)": 94.9970596560218,
        "Satellite Name": "Test1 426",
        "Satellite Number": 426,
        "Semi-Major Axis(m)": 6980739.136638005,
        "Time(s)": 70
    },
    {
        "Altitude(m)": 607098.8332034441,
        "Argument of Periapsis(deg)": 0.0008335156730637124,
        "Eccentricity": 0.0,
        "Inclination(deg)": 60.0,
        "Latitude(deg)": 37.190692976743435,
        "Longitude(deg)": 148.86327319379296,
        "Mean Anomaly(deg)": 135.86994916369468,
        "RAAN(deg)": 94.99663960688207,
        "Satellite Name": "Test1 426",
        "Satellite Number": 426,
        "Semi-Major Axis(m)": 6980739.136638005,
        "Time(s)": 80
    },
    {
        "Altitude(m)": 607001.3370236822,
        "Argument of Periapsis(deg)": 0.0009377051321966765,
        "Eccentricity": 0.0,
        "Inclination(deg)": 60.0,
        "Latitude(deg)": 36.70487661175019,
        "Longitude(deg)": 149.3053420820913,
        "Mean Anomaly(deg)": 136.4900553091565,
        "RAAN(deg)": 94.99621955774232,
        "Satellite Name": "Test1 426",
        "Satellite Number": 426,
        "Semi-Major Axis(m)": 6980739.136638005,
        "Time(s)": 90
    },
    {
        "Altitude(m)": 606904.5269983663,
        "Argument of Periapsis(deg)": 0.0010418945913296407,
        "Eccentricity": 0.0,
        "Inclination(deg)": 60.0,
        "Latitude(deg)": 36.217080163317334,
        "Longitude(deg)": 149.74135724134973,
        "Mean Anomaly(deg)": 137.11016145461832,
        "RAAN(deg)": 94.99579950860257,
        "Satellite Name": "Test1 426",
        "Satellite Number": 426,
        "Semi-Major Axis(m)": 6980739.136638005,
        "Time(s)": 100
    },
    {
        "Altitude(m)": 606808.4667320733,
        "Argument of Periapsis(deg)": 0.0011460840504626045,
        "Eccentricity": 0.0,
        "Inclination(deg)": 60.0,
        "Latitude(deg)": 35.72736124775832,
        "Longitude(deg)": 150.1714761235189,
        "Mean Anomaly(deg)": 137.73026760008014,
        "RAAN(deg)": 94.99537945946284,
        "Satellite Name": "Test1 426",
        "Satellite Number": 426,
        "Semi-Major Axis(m)": 6980739.136638005,
        "Time(s)": 110
    },
    {
        "Altitude(m)": 606713.2196729357,
        "Argument of Periapsis(deg)": 0.0012502735095955685,
        "Eccentricity": 0.0,
        "Inclination(deg)": 60.0,
        "Latitude(deg)": 35.23577578215007,
        "Longitude(deg)": 150.595852786718,
        "Mean Anomaly(deg)": 138.35037374554193,
        "RAAN(deg)": 94.99495941032309,
        "Satellite Name": "Test1 426",
        "Satellite Number": 426,
        "Semi-Major Axis(m)": 6980739.136638005,
        "Time(s)": 120
    },
    {
        "Altitude(m)": 606618.8490804612,
        "Argument of Periapsis(deg)": 0.0013544629687285324,
        "Eccentricity": 0.0,
        "Inclination(deg)": 60.0,
        "Latitude(deg)": 34.74237804420582,
        "Longitude(deg)": 151.01463844707752,
        "Mean Anomaly(deg)": 138.97047989100378,
        "RAAN(deg)": 94.99453936118334,
        "Satellite Name": "Test1 426",
        "Satellite Number": 426,
        "Semi-Major Axis(m)": 6980739.136638005,
        "Time(s)": 130
    },
    {
        "Altitude(m)": 606525.4179934101,
        "Argument of Periapsis(deg)": 0.0014586524278614966,
        "Eccentricity": 0.0,
        "Inclination(deg)": 60.0,
        "Latitude(deg)": 34.2472207304036,
        "Longitude(deg)": 151.42798052166063,
        "Mean Anomaly(deg)": 139.5905860364656,
        "RAAN(deg)": 94.99411931204361,
        "Satellite Name": "Test1 426",
        "Satellite Number": 426,
        "Semi-Major Axis(m)": 6980739.136638005,
        "Time(s)": 140
    },
    {
        "Altitude(m)": 606432.9891977254,
        "Argument of Periapsis(deg)": 0.0015628418869944607,
        "Eccentricity": 0.0,
        "Inclination(deg)": 60.0,
        "Latitude(deg)": 33.750355012379266,
        "Longitude(deg)": 151.83602318765256,
        "Mean Anomaly(deg)": 140.21069218192744,
        "RAAN(deg)": 94.99369926290386,
        "Satellite Name": "Test1 426",
        "Satellite Number": 426,
        "Semi-Major Axis(m)": 6980739.136638005,
        "Time(s)": 150
    },
    {
        "Altitude(m)": 606341.6251945177,
        "Argument of Periapsis(deg)": 0.0016670313461274247,
        "Eccentricity": 0.0,
        "Inclination(deg)": 60.0,
        "Latitude(deg)": 33.251830591604666,
        "Longitude(deg)": 152.23890794443346,
        "Mean Anomaly(deg)": 140.8307983273893,
        "RAAN(deg)": 94.99327921376413,
        "Satellite Name": "Test1 426",
        "Satellite Number": 426,
        "Semi-Major Axis(m)": 6980739.136638005,
        "Time(s)": 160
    },
    {
        "Altitude(m)": 606251.3881681561,
        "Argument of Periapsis(deg)": 0.0017712208052603888,
        "Eccentricity": 0.0,
        "Inclination(deg)": 60.0,
        "Latitude(deg)": 32.751695752376264,
        "Longitude(deg)": 152.63677266519977,
        "Mean Anomaly(deg)": 141.45090447285114,
        "RAAN(deg)": 94.99285916462438,
        "Satellite Name": "Test1 426",
        "Satellite Number": 426,
        "Semi-Major Axis(m)": 6980739.136638005,
        "Time(s)": 170
    },
    {
        "Altitude(m)": 606162.3399544404,
        "Argument of Periapsis(deg)": 0.001875410264393353,
        "Eccentricity": 0.0,
        "Inclination(deg)": 60.0,
        "Latitude(deg)": 32.24999741313598,
        "Longitude(deg)": 153.02975216346505,
        "Mean Anomaly(deg)": 142.07101061831298,
        "RAAN(deg)": 94.99243911548464,
        "Satellite Name": "Test1 426",
        "Satellite Number": 426,
        "Semi-Major Axis(m)": 6980739.136638005,
        "Time(s)": 180
    },
    {
        "Altitude(m)": 606074.5420088936,
        "Argument of Periapsis(deg)": 0.0019795997235263173,
        "Eccentricity": 0.0,
        "Inclination(deg)": 60.0,
        "Latitude(deg)": 31.746781176157192,
        "Longitude(deg)": 153.41797876118997,
        "Mean Anomaly(deg)": 142.69111676377474,
        "RAAN(deg)": 94.9920190663449,
        "Satellite Name": "Test1 426",
        "Satellite Number": 426,
        "Semi-Major Axis(m)": 6980739.136638005,
        "Time(s)": 190
    }
]